[{"OBJECT_NAME":"ONEWEB-0492","OBJECT_ID":"2022-138B","EPOCH":"2026-03-09T23:47:44.398176","MEAN_MOTION":13.19725071,"ECCENTRICITY":0.00018733,"INCLINATION":87.9229,"RA_OF_ASC_NODE":324.7356,"ARG_OF_PERICENTER":83.248,"MEAN_ANOMALY":276.8866,"EPHEMERIS_TYPE":0,"CLASSIFICATION_TYPE":"U","NORAD_CAT_ID":54114,"ELEMENT_SET_NO":999,"REV_AT_EPOCH":16375,"BSTAR":-0.00046694898,"MEAN_MOTION_DOT":-1.74e-6,"MEAN_MOTION_DDOT":0},{"OBJECT_NAME":"FENGYUN 1C DEB","OBJECT_ID":"1999-025TU","EPOCH":"2026-03-09T06:45:37.353312","MEAN_MOTION":13.39046941,"ECCENTRICITY":0.03672818,"INCLINATION":98.6985,"RA_OF_ASC_NODE":176.2286,"ARG_OF_PERICENTER":14.8878,"MEAN_ANOMALY":37.6833,"EPHEMERIS_TYPE":0,"CLASSIFICATION_TYPE":"U","NORAD_CAT_ID":30163,"ELEMENT_SET_NO":999,"REV_AT_EPOCH":93103,"BSTAR":0.0014340216,"MEAN_MOTION_DOT":1.103e-5,"MEAN_MOTION_DDOT":0}]
